{
  "norad_id": 53503,
  "name": "STARLINK-4461",
  "history": [
    {
      "epoch": "2026-03-28T11:32:38.664384",
      "apogee_km": 239.60201893470094,
      "perigee_km": 236.75779662238438,
      "latitude_deg": -21.67220383915151,
      "longitude_deg": -63.523706240113825,
      "semi_major_axis_km": 6616.316907778542,
      "eccentricity": 0.00021494,
      "inclination_deg": 97.6328,
      "raan_deg": 237.5181,
      "arg_perigee_deg": 294.3253,
      "mean_anomaly_deg": 65.7806,
      "mean_motion_rev_day": 16.13163228
    },
    {
      "epoch": "2026-03-29T05:24:06.721920",
      "apogee_km": 236.28110695011128,
      "perigee_km": 232.05716579019827,
      "latitude_deg": -67.57401399535819,
      "longitude_deg": 7.907468799967319,
      "semi_major_axis_km": 6612.3061363701545,
      "eccentricity": 0.0003194,
      "inclination_deg": 97.6318,
      "raan_deg": 238.3834,
      "arg_perigee_deg": 299.3326,
      "mean_anomaly_deg": 60.764,
      "mean_motion_rev_day": 16.14631175
    }
  ]
}